GLOBALSTAR M084 [+]     
1 38040U 11080A   24030.71768487 -.00000088  00000+0  90234-4 0  9990
2 38040  52.0006 141.2186 0000882  88.1158  59.3571 12.62270437559083
GLOBALSTAR M080 [+]     
1 38041U 11080B   24030.60312442 -.00000089  00000+0  82514-4 0  9998
2 38041  52.0056 142.9978 0000782  79.3831  26.7610 12.62268583559198
GLOBALSTAR M082 [+]     
1 38042U 11080C   24031.00411692 -.00000075  00000+0  16177-3 0  9997
2 38042  52.0077  97.1703 0001147 145.4212 284.4726 12.62265574560126
GLOBALSTAR M092 [+]     
1 38043U 11080D   24030.92078227 -.00000100  00000+0  19954-4 0  9997
2 38043  52.0063 187.7753 0001174  90.5160  78.4804 12.62275993558395
GLOBALSTAR M090 [+]     
1 38044U 11080E   24031.34927762 -.00000086  00000+0  10048-3 0  9999
2 38044  51.9884  90.5743 0000770 142.7710 297.2048 12.62265673560159
GLOBALSTAR M086 [+]     
1 38045U 11080F   24030.97622689 -.00000079  00000+0  13801-3 0  9990
2 38045  51.9898  92.2241 0000462 256.6905 166.4908 12.62266848560119
GLOBALSTAR M097 [+]     
1 39072U 13005A   24031.22607174 -.00000094  00000+0  52818-4 0  9990
2 39072  52.0075   5.4974 0000099 115.5883 244.4994 12.62260298507376
GLOBALSTAR M093 [+]     
1 39073U 13005B   24031.12038447 -.00000092  00000+0  67390-4 0  9990
2 39073  51.9840 359.9270 0000082 192.5269 167.5595 12.62260350507355
